{"type": "FeatureCollection", "features": [ {"type": "Feature", "properties": {"norad_id": 61182, "name": "GSAT0232 (GALILEO 32)", "group": "gnss", "lat": -52.290995962433435, "lon": 109.96338378336861, "alt_km": 23224.52358324108, "timestamp": "2025-12-26T15:29:39.683022+00:00", "meta": {"OBJECT_NAME": "GSAT0232 (GALILEO 32)", "OBJECT_ID": "2024-167A", "EPOCH": "2025-12-24T18:25:47.943264", "MEAN_MOTION": 1.70473505, "ECCENTRICITY": 0.0001887, "INCLINATION": 55.2374, "RA_OF_ASC_NODE": 226.1008, "ARG_OF_PERICENTER": 202.1814, "MEAN_ANOMALY": 339.8736, "EPHEMERIS_TYPE": 0, "CLASSIFICATION_TYPE": "U", "NORAD_CAT_ID": 61182, "ELEMENT_SET_NO": 999, "REV_AT_EPOCH": 790, "BSTAR": 0, "MEAN_MOTION_DOT": 7.1e-07, "MEAN_MOTION_DDOT": 0}, "tle": {"line1": "1 61182U 24167A   25358.76791601  .00000071  00000+0  00000+0 0  9994", "line2": "2 61182  55.2374 226.1008 0001887 202.1814 339.8736  1.70473505  7904"}}, "geometry": {"type": "Point", "coordinates": [109.96338378336861, -52.290995962433435]}}, {"type": "Feature", "properties": {"norad_id": 61183, "name": "GSAT0226 (GALILEO 31)", "group": "gnss", "lat": 5.7387247493055, "lon": -129.9309010346168, "alt_km": 23222.535805216303, "timestamp": "2025-12-26T15:29:39.683039+00:00", "meta": {"OBJECT_NAME": "GSAT0226 (GALILEO 31)", "OBJECT_ID": "2024-167B", "EPOCH": "2025-12-25T01:44:41.758656", "MEAN_MOTION": 1.70473602, "ECCENTRICITY": 0.00012523, "INCLINATION": 55.236, "RA_OF_ASC_NODE": 226.0978, "ARG_OF_PERICENTER": 109.4084, "MEAN_ANOMALY": 12.3648, "EPHEMERIS_TYPE": 0, "CLASSIFICATION_TYPE": "U", "NORAD_CAT_ID": 61183, "ELEMENT_SET_NO": 999, "REV_AT_EPOCH": 788, "BSTAR": 0, "MEAN_MOTION_DOT": 7.1e-07, "MEAN_MOTION_DDOT": 0}, "tle": {"line1": "1 61183U 24167B   25359.07270554  .00000071  00000+0  00000+0 0  9999", "line2": "2 61183  55.2360 226.0978 0001252 109.4084  12.3648  1.70473602  7889"}}, "geometry": {"type": "Point", "coordinates": [-129.9309010346168, 5.7387247493055]}}, {"type": "Feature", "properties": {"norad_id": 61186, "name": "BEIDOU-3 M25 (C47)", "group": "gnss", "lat": 43.772253134100296, "lon": -8.945245563853895, "alt_km": 21529.8597022566, "timestamp": "2025-12-26T15:29:39.683059+00:00", "meta": {"OBJECT_NAME": "BEIDOU-3 M25 (C47)", "OBJECT_ID": "2024-168B", "EPOCH": "2025-12-26T03:07:34.767264", "MEAN_MOTION": 1.86229952, "ECCENTRICITY": 0.00054011, "INCLINATION": 54.6301, "RA_OF_ASC_NODE": 308.2571, "ARG_OF_PERICENTER": 300.3684, "MEAN_ANOMALY": 132.0929, "EPHEMERIS_TYPE": 0, "CLASSIFICATION_TYPE": "U", "NORAD_CAT_ID": 61186, "ELEMENT_SET_NO": 999, "REV_AT_EPOCH": 856, "BSTAR": 0, "MEAN_MOTION_DOT": -5.6e-07, "MEAN_MOTION_DDOT": 0}, "tle": {"line1": "1 61186U 24168B   25360.13026351 -.00000056  00000+0  00000+0 0  9990", "line2": "2 61186  54.6301 308.2571 0005401 300.3684 132.0929  1.86229952  8562"}}, "geometry": {"type": "Point", "coordinates": [-8.945245563853895, 43.772253134100296]}}, {"type": "Feature", "properties": {"norad_id": 61187, "name": "BEIDOU-3 M27 (C49)", "group": "gnss", "lat": -10.524161039454844, "lon": 135.78326984852634, "alt_km": 21535.80455839028, "timestamp": "2025-12-26T15:29:39.683077+00:00", "meta": {"OBJECT_NAME": "BEIDOU-3 M27 (C49)", "OBJECT_ID": "2024-168C", "EPOCH": "2025-12-26T02:09:38.712960", "MEAN_MOTION": 1.86230112, "ECCENTRICITY": 0.00025351, "INCLINATION": 54.6256, "RA_OF_ASC_NODE": 308.2421, "ARG_OF_PERICENTER": 341.7609, "MEAN_ANOMALY": 198.677, "EPHEMERIS_TYPE": 0, "CLASSIFICATION_TYPE": "U", "NORAD_CAT_ID": 61187, "ELEMENT_SET_NO": 999, "REV_AT_EPOCH": 603, "BSTAR": 0, "MEAN_MOTION_DOT": -5.6e-07, "MEAN_MOTION_DDOT": 0}, "tle": {"line1": "1 61187U 24168C   25360.09003140 -.00000056  00000+0  00000+0 0  9997", "line2": "2 61187  54.6256 308.2421 0002535 341.7609 198.6770  1.86230112  6039"}}, "geometry": {"type": "Point", "coordinates": [135.78326984852634, -10.524161039454844]}}, {"type": "Feature", "properties": {"norad_id": 62339, "name": "GPS BIII-7  (PRN 01)", "group": "gnss", "lat": -32.80220463133208, "lon": -171.9099091121614, "alt_km": 20205.37848089485, "timestamp": "2025-12-26T15:29:39.683097+00:00", "meta": {"OBJECT_NAME": "GPS BIII-7  (PRN 01)", "OBJECT_ID": "2024-242A", "EPOCH": "2025-12-25T14:06:28.687392", "MEAN_MOTION": 2.00568026, "ECCENTRICITY": 0.0012842, "INCLINATION": 54.9198, "RA_OF_ASC_NODE": 341.2207, "ARG_OF_PERICENTER": 346.3867, "MEAN_ANOMALY": 191.38, "EPHEMERIS_TYPE": 0, "CLASSIFICATION_TYPE": "U", "NORAD_CAT_ID": 62339, "ELEMENT_SET_NO": 999, "REV_AT_EPOCH": 777, "BSTAR": 0, "MEAN_MOTION_DOT": -6e-07, "MEAN_MOTION_DDOT": 0}, "tle": {"line1": "1 62339U 24242A   25359.58783203 -.00000060  00000+0  00000+0 0  9992", "line2": "2 62339  54.9198 341.2207 0012842 346.3867 191.3800  2.00568026  7776"}}, "geometry": {"type": "Point", "coordinates": [-171.9099091121614, -32.80220463133208]}}, {"type": "Feature", "properties": {"norad_id": 62850, "name": "NVS-02 (IRNSS-1K)", "group": "gnss", "lat": -15.839247071419766, "lon": -169.58023504072173, "alt_km": 33724.52362209042, "timestamp": "2025-12-26T15:29:39.683115+00:00", "meta": {"OBJECT_NAME": "NVS-02 (IRNSS-1K)", "OBJECT_ID": "2025-020A", "EPOCH": "2025-12-23T02:48:28.612512", "MEAN_MOTION": 2.17602057, "ECCENTRICITY": 0.73473509, "INCLINATION": 20.9588, "RA_OF_ASC_NODE": 323.9017, "ARG_OF_PERICENTER": 32.9618, "MEAN_ANOMALY": 356.3768, "EPHEMERIS_TYPE": 0, "CLASSIFICATION_TYPE": "U", "NORAD_CAT_ID": 62850, "ELEMENT_SET_NO": 999, "REV_AT_EPOCH": 714, "BSTAR": 0.00026724694, "MEAN_MOTION_DOT": 1.47e-06, "MEAN_MOTION_DDOT": 0}, "tle": {"line1": "1 62850U 25020A   25357.11699783  .00000147  00000+0  26725-3 0  9992", "line2": "2 62850  20.9588 323.9017 7347350  32.9618 356.3768  2.17602057  7148"}}, "geometry": {"type": "Point", "coordinates": [-169.58023504072173, -15.839247071419766]}}, {"type": "Feature", "properties": {"norad_id": 62876, "name": "QZS-6 (QZSS/PRN 200)", "group": "gnss", "lat": -0.005103176160599446, "lon": 58.343260497034336, "alt_km": 35791.85134558014, "timestamp": "2025-12-26T15:29:39.683136+00:00", "meta": {"OBJECT_NAME": "QZS-6 (QZSS/PRN 200)", "OBJECT_ID": "2025-023A", "EPOCH": "2025-12-25T23:46:04.275264", "MEAN_MOTION": 1.00270126, "ECCENTRICITY": 0.00017193, "INCLINATION": 0.0609, "RA_OF_ASC_NODE": 74.9528, "ARG_OF_PERICENTER": 207.2764, "MEAN_ANOMALY": 259.5681, "EPHEMERIS_TYPE": 0, "CLASSIFICATION_TYPE": "U", "NORAD_CAT_ID": 62876, "ELEMENT_SET_NO": 999, "REV_AT_EPOCH": 322, "BSTAR": 0, "MEAN_MOTION_DOT": -2.12e-06, "MEAN_MOTION_DDOT": 0}, "tle": {"line1": "1 62876U 25023A   25359.99032726 -.00000212  00000+0  00000+0 0  9997", "line2": "2 62876   0.0609  74.9528 0001719 207.2764 259.5681  1.00270126  3229"}}, "geometry": {"type": "Point", "coordinates": [58.343260497034336, -0.005103176160599446]}}, {"type": "Feature", "properties": {"norad_id": 63130, "name": "COSMOS 2584 (704K)", "group": "gnss", "lat": 29.350028317616502, "lon": -116.51768395787094, "alt_km": 19120.8341279095, "timestamp": "2025-12-26T15:29:39.683154+00:00", "meta": {"OBJECT_NAME": "COSMOS 2584 (704K)", "OBJECT_ID": "2025-042A", "EPOCH": "2025-12-24T02:34:25.549824", "MEAN_MOTION": 2.13102981, "ECCENTRICITY": 0.00077651, "INCLINATION": 64.9819, "RA_OF_ASC_NODE": 78.7588, "ARG_OF_PERICENTER": 220.6893, "MEAN_ANOMALY": 139.3012, "EPHEMERIS_TYPE": 0, "CLASSIFICATION_TYPE": "U", "NORAD_CAT_ID": 63130, "ELEMENT_SET_NO": 999, "REV_AT_EPOCH": 631, "BSTAR": 0, "MEAN_MOTION_DOT": 1e-08, "MEAN_MOTION_DDOT": 0}, "tle": {"line1": "1 63130U 25042A   25358.10724016  .00000001  00000+0  00000+0 0  9999", "line2": "2 63130  64.9819  78.7588 0007765 220.6893 139.3012  2.13102981  6316"}}, "geometry": {"type": "Point", "coordinates": [-116.51768395787094, 29.350028317616502]}}, {"type": "Feature", "properties": {"norad_id": 64202, "name": "GPS BIII-8  (PRN 21)", "group": "gnss", "lat": 39.296321575803745, "lon": 72.89164282603865, "alt_km": 20180.60915463489, "timestamp": "2025-12-26T15:29:39.683171+00:00", "meta": {"OBJECT_NAME": "GPS BIII-8  (PRN 21)", "OBJECT_ID": "2025-116A", "EPOCH": "2025-12-26T01:49:27.319296", "MEAN_MOTION": 2.00557298, "ECCENTRICITY": 0.00059923, "INCLINATION": 55.1151, "RA_OF_ASC_NODE": 38.103, "ARG_OF_PERICENTER": 311.0999, "MEAN_ANOMALY": 48.1681, "EPHEMERIS_TYPE": 0, "CLASSIFICATION_TYPE": "U", "NORAD_CAT_ID": 64202, "ELEMENT_SET_NO": 999, "REV_AT_EPOCH": 439, "BSTAR": 0, "MEAN_MOTION_DOT": -5.1e-07, "MEAN_MOTION_DDOT": 0}, "tle": {"line1": "1 64202U 25116A   25360.07601064 -.00000051  00000+0  00000+0 0  9994", "line2": "2 64202  55.1151  38.1030 0005992 311.0999  48.1681  2.00557298  4398"}}, "geometry": {"type": "Point", "coordinates": [72.89164282603865, 39.296321575803745]}}, {"type": "Feature", "properties": {"norad_id": 65590, "name": "COSMOS 2596 (708K)", "group": "gnss", "lat": -64.3818703452751, "lon": -139.24313665815407, "alt_km": 19109.83794774173, "timestamp": "2025-12-26T15:29:39.683190+00:00", "meta": {"OBJECT_NAME": "COSMOS 2596 (708K)", "OBJECT_ID": "2025-206B", "EPOCH": "2025-12-24T10:04:00.075648", "MEAN_MOTION": 2.13100293, "ECCENTRICITY": 0.00140917, "INCLINATION": 64.738, "RA_OF_ASC_NODE": 321.0695, "ARG_OF_PERICENTER": 307.5813, "MEAN_ANOMALY": 50.2886, "EPHEMERIS_TYPE": 0, "CLASSIFICATION_TYPE": "U", "NORAD_CAT_ID": 65590, "ELEMENT_SET_NO": 999, "REV_AT_EPOCH": 218, "BSTAR": 0, "MEAN_MOTION_DOT": -3.5e-07, "MEAN_MOTION_DDOT": 0}, "tle": {"line1": "1 65590U 25206B   25358.41944532 -.00000035  00000+0  00000+0 0  9992", "line2": "2 65590  64.7380 321.0695 0014091 307.5813  50.2886  2.13100293  2184"}}, "geometry": {"type": "Point", "coordinates": [-139.24313665815407, -64.3818703452751]}}]}